[
    {
        "Altitude(m)": 564215.2214785352,
        "Argument of Periapsis(deg)": 0.006622991110713501,
        "Eccentricity": 0.0,
        "Inclination(deg)": 53.0,
        "Latitude(deg)": -34.344526361169066,
        "Longitude(deg)": -144.9704110192318,
        "Mean Anomaly(deg)": 224.63709286757754,
        "RAAN(deg)": 104.99014336852802,
        "Satellite Name": "Starlink Shell 1 475",
        "Satellite Number": 475,
        "Semi-Major Axis(m)": 6931778.249405717,
        "Time(s)": 190
    },
    {
        "Altitude(m)": 564388.5047081152,
        "Argument of Periapsis(deg)": 0.0069715695902247375,
        "Eccentricity": 0.0,
        "Inclination(deg)": 53.0,
        "Latitude(deg)": -34.77383051893272,
        "Longitude(deg)": -144.45880693244266,
        "Mean Anomaly(deg)": 225.26392407113434,
        "RAAN(deg)": 104.98962459845056,
        "Satellite Name": "Starlink Shell 1 475",
        "Satellite Number": 475,
        "Semi-Major Axis(m)": 6931778.249405717,
        "Time(s)": 200
    },
    {
        "Altitude(m)": 564561.2339560144,
        "Argument of Periapsis(deg)": 0.007320148069735974,
        "Eccentricity": 0.0,
        "Inclination(deg)": 53.0,
        "Latitude(deg)": -35.20055616827319,
        "Longitude(deg)": -143.94148397902765,
        "Mean Anomaly(deg)": 225.89075527469106,
        "RAAN(deg)": 104.98910582837308,
        "Satellite Name": "Starlink Shell 1 475",
        "Satellite Number": 475,
        "Semi-Major Axis(m)": 6931778.249405717,
        "Time(s)": 210
    },
    {
        "Altitude(m)": 564733.3430535742,
        "Argument of Periapsis(deg)": 0.007668726549247212,
        "Eccentricity": 0.0,
        "Inclination(deg)": 53.0,
        "Latitude(deg)": -35.624636711458194,
        "Longitude(deg)": -143.4183257991977,
        "Mean Anomaly(deg)": 226.51758647824772,
        "RAAN(deg)": 104.98858705829561,
        "Satellite Name": "Starlink Shell 1 475",
        "Satellite Number": 475,
        "Semi-Major Axis(m)": 6931778.249405717,
        "Time(s)": 220
    },
    {
        "Altitude(m)": 564904.7659631815,
        "Argument of Periapsis(deg)": 0.00801730502875845,
        "Eccentricity": 0.0,
        "Inclination(deg)": 53.0,
        "Latitude(deg)": -36.046004022687626,
        "Longitude(deg)": -142.88921531997488,
        "Mean Anomaly(deg)": 227.14441768180447,
        "RAAN(deg)": 104.98806828821813,
        "Satellite Name": "Starlink Shell 1 475",
        "Satellite Number": 475,
        "Semi-Major Axis(m)": 6931778.249405717,
        "Time(s)": 230
    },
    {
        "Altitude(m)": 565075.436807717,
        "Argument of Periapsis(deg)": 0.008365883508269684,
        "Eccentricity": 0.0,
        "Inclination(deg)": 53.0,
        "Latitude(deg)": -36.46458841738538,
        "Longitude(deg)": -142.35403434497107,
        "Mean Anomaly(deg)": 227.77124888536113,
        "RAAN(deg)": 104.98754951814067,
        "Satellite Name": "Starlink Shell 1 475",
        "Satellite Number": 475,
        "Semi-Major Axis(m)": 6931778.249405717,
        "Time(s)": 240
    },
    {
        "Altitude(m)": 565245.289899943,
        "Argument of Periapsis(deg)": 0.008714461987780921,
        "Eccentricity": 0.0,
        "Inclination(deg)": 53.0,
        "Latitude(deg)": -36.88031862218045,
        "Longitude(deg)": -141.8126646666372,
        "Mean Anomaly(deg)": 228.39808008891785,
        "RAAN(deg)": 104.98703074806319,
        "Satellite Name": "Starlink Shell 1 475",
        "Satellite Number": 475,
        "Semi-Major Axis(m)": 6931778.249405717,
        "Time(s)": 250
    },
    {
        "Altitude(m)": 565414.2597718028,
        "Argument of Periapsis(deg)": 0.009063040467292158,
        "Eccentricity": 0.0,
        "Inclination(deg)": 53.0,
        "Latitude(deg)": -37.293121745723326,
        "Longitude(deg)": -141.26498767579614,
        "Mean Anomaly(deg)": 229.02491129247463,
        "RAAN(deg)": 104.9865119779857,
        "Satellite Name": "Starlink Shell 1 475",
        "Satellite Number": 475,
        "Semi-Major Axis(m)": 6931778.249405717,
        "Time(s)": 260
    },
    {
        "Altitude(m)": 565582.2812035773,
        "Argument of Periapsis(deg)": 0.009411618946803396,
        "Eccentricity": 0.0,
        "Inclination(deg)": 53.0,
        "Latitude(deg)": -37.70292325049158,
        "Longitude(deg)": -140.7108839819039,
        "Mean Anomaly(deg)": 229.65174249603132,
        "RAAN(deg)": 104.98599320790825,
        "Satellite Name": "Starlink Shell 1 475",
        "Satellite Number": 475,
        "Semi-Major Axis(m)": 6931778.249405717,
        "Time(s)": 270
    },
    {
        "Altitude(m)": 565749.2892529423,
        "Argument of Periapsis(deg)": 0.009760197426314633,
        "Eccentricity": 0.0,
        "Inclination(deg)": 53.0,
        "Latitude(deg)": -38.109646925750496,
        "Longitude(deg)": -140.15023455749906,
        "Mean Anomaly(deg)": 230.27857369958804,
        "RAAN(deg)": 104.98547443783077,
        "Satellite Name": "Starlink Shell 1 475",
        "Satellite Number": 475,
        "Semi-Major Axis(m)": 6931778.249405717,
        "Time(s)": 280
    },
    {
        "Altitude(m)": 565915.2192838626,
        "Argument of Periapsis(deg)": 0.01010877590582587,
        "Eccentricity": 0.0,
        "Inclination(deg)": 53.0,
        "Latitude(deg)": -38.51321486185467,
        "Longitude(deg)": -139.58292038168207,
        "Mean Anomaly(deg)": 230.90540490314473,
        "RAAN(deg)": 104.9849556677533,
        "Satellite Name": "Starlink Shell 1 475",
        "Satellite Number": 475,
        "Semi-Major Axis(m)": 6931778.249405717,
        "Time(s)": 290
    },
    {
        "Altitude(m)": 566080.0069953554,
        "Argument of Periapsis(deg)": 0.010457354385337106,
        "Eccentricity": 0.0,
        "Inclination(deg)": 53.0,
        "Latitude(deg)": -38.91354742608237,
        "Longitude(deg)": -139.00882209609813,
        "Mean Anomaly(deg)": 231.53223610670145,
        "RAAN(deg)": 104.98443689767582,
        "Satellite Name": "Starlink Shell 1 475",
        "Satellite Number": 475,
        "Semi-Major Axis(m)": 6931778.249405717,
        "Time(s)": 300
    },
    {
        "Altitude(m)": 566243.5884500617,
        "Argument of Periapsis(deg)": 0.010805932864848343,
        "Eccentricity": 0.0,
        "Inclination(deg)": 53.0,
        "Latitude(deg)": -39.3105632402097,
        "Longitude(deg)": -138.42782118689797,
        "Mean Anomaly(deg)": 232.1590673102582,
        "RAAN(deg)": 104.98391812759834,
        "Satellite Name": "Starlink Shell 1 475",
        "Satellite Number": 475,
        "Semi-Major Axis(m)": 6931778.249405717,
        "Time(s)": 310
    },
    {
        "Altitude(m)": 566405.900102671,
        "Argument of Periapsis(deg)": 0.01115451134435958,
        "Eccentricity": 0.0,
        "Inclination(deg)": 53.0,
        "Latitude(deg)": -39.70417916005209,
        "Longitude(deg)": -137.83979966752574,
        "Mean Anomaly(deg)": 232.78589851381489,
        "RAAN(deg)": 104.98339935752087,
        "Satellite Name": "Starlink Shell 1 475",
        "Satellite Number": 475,
        "Semi-Major Axis(m)": 6931778.249405717,
        "Time(s)": 320
    },
    {
        "Altitude(m)": 566566.8788281196,
        "Argument of Periapsis(deg)": 0.011503089823870818,
        "Eccentricity": 0.0,
        "Inclination(deg)": 53.0,
        "Latitude(deg)": -40.094310257210076,
        "Longitude(deg)": -137.2446397757992,
        "Mean Anomaly(deg)": 233.41272971737155,
        "RAAN(deg)": 104.98288058744342,
        "Satellite Name": "Starlink Shell 1 475",
        "Satellite Number": 475,
        "Semi-Major Axis(m)": 6931778.249405717,
        "Time(s)": 330
    },
    {
        "Altitude(m)": 566726.4619496085,
        "Argument of Periapsis(deg)": 0.011851668303382053,
        "Eccentricity": 0.0,
        "Inclination(deg)": 53.0,
        "Latitude(deg)": -40.480869803269,
        "Longitude(deg)": -136.64222519873715,
        "Mean Anomaly(deg)": 234.03956092092832,
        "RAAN(deg)": 104.98236181736594,
        "Satellite Name": "Starlink Shell 1 475",
        "Satellite Number": 475,
        "Semi-Major Axis(m)": 6931778.249405717,
        "Time(s)": 340
    },
    {
        "Altitude(m)": 566884.5872664087,
        "Argument of Periapsis(deg)": 0.012200246782893292,
        "Eccentricity": 0.0,
        "Inclination(deg)": 53.0,
        "Latitude(deg)": -40.863769256727736,
        "Longitude(deg)": -136.03244079994477,
        "Mean Anomaly(deg)": 234.66639212448501,
        "RAAN(deg)": 104.98184304728846,
        "Satellite Name": "Starlink Shell 1 475",
        "Satellite Number": 475,
        "Semi-Major Axis(m)": 6931778.249405717,
        "Time(s)": 350
    },
    {
        "Altitude(m)": 567041.1930814063,
        "Argument of Periapsis(deg)": 0.012548825262404526,
        "Eccentricity": 0.0,
        "Inclination(deg)": 53.0,
        "Latitude(deg)": -41.24291825293806,
        "Longitude(deg)": -135.41517236296795,
        "Mean Anomaly(deg)": 235.29322332804182,
        "RAAN(deg)": 104.98132427721099,
        "Satellite Name": "Starlink Shell 1 475",
        "Satellite Number": 475,
        "Semi-Major Axis(m)": 6931778.249405717,
        "Time(s)": 360
    },
    {
        "Altitude(m)": 567196.218228457,
        "Argument of Periapsis(deg)": 0.012897403741915765,
        "Eccentricity": 0.0,
        "Inclination(deg)": 53.0,
        "Latitude(deg)": -41.61822459735251,
        "Longitude(deg)": -134.79030786399497,
        "Mean Anomaly(deg)": 235.92005453159848,
        "RAAN(deg)": 104.98080550713351,
        "Satellite Name": "Starlink Shell 1 475",
        "Satellite Number": 475,
        "Semi-Major Axis(m)": 6931778.249405717,
        "Time(s)": 370
    }
]